[{"OBJECT_NAME":"STARLINK-3159","OBJECT_ID":"2021-104H","EPOCH":"2026-03-09T15:20:30.727392","MEAN_MOTION":15.08841039,"ECCENTRICITY":0.000111,"INCLINATION":53.2174,"RA_OF_ASC_NODE":219.3501,"ARG_OF_PERICENTER":90.4458,"MEAN_ANOMALY":269.6662,"EPHEMERIS_TYPE":0,"CLASSIFICATION_TYPE":"U","NORAD_CAT_ID":49415,"ELEMENT_SET_NO":999,"REV_AT_EPOCH":23875,"BSTAR":-2.3118e-5,"MEAN_MOTION_DOT":-6.56e-6,"MEAN_MOTION_DDOT":0},{"OBJECT_NAME":"MINOTAUR 4 R\/B","OBJECT_ID":"2020-046E","EPOCH":"2026-03-09T23:21:28.488960","MEAN_MOTION":15.06543892,"ECCENTRICITY":0.00095926,"INCLINATION":53.9792,"RA_OF_ASC_NODE":306.0413,"ARG_OF_PERICENTER":86.078,"MEAN_ANOMALY":274.1318,"EPHEMERIS_TYPE":0,"CLASSIFICATION_TYPE":"U","NORAD_CAT_ID":45877,"ELEMENT_SET_NO":999,"REV_AT_EPOCH":23396,"BSTAR":0.00016618262,"MEAN_MOTION_DOT":2.204e-5,"MEAN_MOTION_DDOT":0}]
